[
    {
        "Altitude(m)": 607895.8274165194,
        "Argument of Periapsis(deg)": 0.0,
        "Eccentricity": 0.0,
        "Inclination(deg)": 60.0,
        "Latitude(deg)": 40.998366764464706,
        "Longitude(deg)": 175.08873888093768,
        "Mean Anomaly(deg)": 130.9091,
        "RAAN(deg)": 125.00000000000001,
        "Satellite Name": "Test1 558",
        "Satellite Number": 558,
        "Semi-Major Axis(m)": 6980739.136638005,
        "Time(s)": 0
    },
    {
        "Altitude(m)": 607795.1398899406,
        "Argument of Periapsis(deg)": 0.00010418945913296404,
        "Eccentricity": 0.0,
        "Inclination(deg)": 60.0,
        "Latitude(deg)": 40.53069008811129,
        "Longitude(deg)": 175.58533138520616,
        "Mean Anomaly(deg)": 131.52920614546187,
        "RAAN(deg)": 124.99957995086027,
        "Satellite Name": "Test1 558",
        "Satellite Number": 558,
        "Semi-Major Axis(m)": 6980739.136638005,
        "Time(s)": 10
    }
]